{
  "norad_id": 62821,
  "name": "STARLINK-32782",
  "history": [
    {
      "epoch": "2026-03-28T17:14:44.784960Z",
      "apogee_km": 475.83502659798705,
      "perigee_km": 474.5531795484676,
      "latitude_deg": 1.344597944120547e-05,
      "longitude_deg": 136.25361140824467,
      "height_km": 476.1079568094025,
      "semi_major_axis_km": 6853.331103073227,
      "eccentricity": 9.352e-05,
      "inclination_deg": 53.1578,
      "raan_deg": 221.0752,
      "arg_perigee_deg": 91.3914,
      "mean_anomaly_deg": 268.7194,
      "mean_motion_rev_day": 15.30207022
    }
  ]
}