{"fetched_at":"2026-03-30T06:02:59Z","count":15439,"tles":[{"name":"STARLINK-32782","line1":"1 62821U 25018R   26087.71857390  .00024998  00000+0  85312-3 0  9991","line2":"2 62821  53.1578 221.0752 0000935  91.3914 268.7194 15.30207022 66093","category":"Starlink"}]}